APRIZESAT 2             
1 28366U 04025A   26189.92418795  .00000153  00000+0  60393-4 0  9990
2 28366  98.1034 354.6761 0105503 183.7654 176.2752 14.38045615154762
SAUDICOMSAT 1           
1 28369U 04025D   26189.94612574  .00000230  00000+0  63867-4 0  9991
2 28369  98.5774 200.6650 0031260 318.6350  41.2479 14.55490632167298
SAUDICOMSAT 2           
1 28370U 04025E   26189.86215016  .00000131  00000+0  45917-4 0  9990
2 28370  98.6640 202.7212 0055192 192.8972 167.0813 14.49992242163249
APRIZESAT 1             
1 28372U 04025G   26189.93592242  .00000174  00000+0  54758-4 0  9999
2 28372  98.6306 201.2533 0045816  89.2040 271.4404 14.51789586165063
NANOSAT-1               
1 28493U 04049B   26189.93633968  .00000703  00000+0  99774-4 0  9995
2 28493  98.2302 327.1326 0003311 205.7104 154.3943 14.80202914158669
SAUDICOMSAT 7           
1 31119U 07012C   26189.88392793  .00000367  00000+0  74757-4 0  9999
2 31119  98.3792 164.4612 0056726 127.6525 232.9844 14.66132281 25613
SAUDICOMSAT 6           
1 31121U 07012E   26189.91403621  .00000285  00000+0  64576-4 0  9996
2 31121  98.4111 157.8367 0070377 259.0197 100.3082 14.62581004 23367
SAUDICOMSAT 5           
1 31124U 07012H   26189.89513926  .00000480  00000+0  91185-4 0  9999
2 31124  98.3503 165.2151 0048553  58.2421 302.3501 14.68186610 26787
SAUDICOMSAT 3           
1 31125U 07012J   26189.88600771  .00000570  00000+0  10124-3 0  9997
2 31125  98.3157 165.7526 0038713 345.4756  14.5334 14.70743212 28017
SAUDICOMSAT 4           
1 31127U 07012L   26189.88120142  .00000289  00000+0  62802-4 0  9996
2 31127  98.3997 162.8957 0063112 189.4601 170.5418 14.64531777 24468
APRIZESAT 4             
1 35684U 09041D   26188.75612091  .00000543  00000+0  71454-4 0  9992
2 35684  98.1405 264.4862 0041930 254.3409 105.3176 14.83907056914416
APRIZESAT 3             
1 35686U 09041F   26189.36472022  .00001101  00000+0  99795-4 0  9999
2 35686  98.2085 343.6064 0061311 358.3556   1.7453 14.96295907919545
S-NET D                 
1 43186U 18014G   26189.63866114  .00002993  00000+0  15543-3 0  9990
2 43186  97.5338  94.2957 0006615 313.1959  46.8721 15.16878442462011
S-NET B                 
1 43187U 18014H   26189.98037381  .00002702  00000+0  14073-3 0  9990
2 43187  97.5345  94.6227 0007114 305.8273  54.2299 15.16850745462060
S-NET A                 
1 43188U 18014J   26189.96725164  .00003034  00000+0  15744-3 0  9997
2 43188  97.5354  94.8226 0007045 306.5700  53.4884 15.16888607462067
S-NET C                 
1 43189U 18014K   26189.98436400  .00002675  00000+0  13936-3 0  9993
2 43189  97.5370  94.9175 0008180 296.3308  63.7085 15.16842390460616
SALSAT                  
1 46495U 20068K   26189.92478988  .00004831  00000+0  16857-3 0  9990
2 46495  97.8859 194.3174 0008548 216.5599 143.5058 15.30112926318689
OOV-CUBE (TUBSAT-30)    
1 60240U 24128F   26189.61355635  .00001358  00000+0  11477-3 0  9998
2 60240  61.9939 150.8549 0041932 138.4682 221.9608 15.02856535109338
LPNTSAT-001 (IOD-1)     
1 68408U 26065A   26189.62360317  .00001838  00000+0  91783-4 0  9990
2 68408  97.3994  69.6782 0014707 292.0550  67.9122 15.18648157 15514
